{
    "week": 293,
    "satellites": [
        {
            "Name": "COSMOS 2545 (760)",
            "Line1": "1 45358U 20018A   24323.44262235 -.00000057  00000+0  00000+0 0  9999",
            "Line2": "2 45358  64.6769 332.5831 0012261 248.3437 111.5542  2.13102458 36399",
            "SatelliteNumber": "45358",
            "Classification": "U",
            "LaunchYear": "20",
            "LaunchNumber": "018",
            "PieceOfLaunch": "A",
            "EpochYear": "24",
            "EpochDay": 323.44262235,
            "FirstDerivativeMeanMotion": -5.7e-07,
            "SecondDerivativeMeanMotion": "00000+0",
            "BSTAR": "00000+0",
            "SetNumber": "999",
            "Inclination": 64.6769,
            "RAAN": 332.5831,
            "Eccentricity": 0.0012261,
            "ArgumentOfPerigee": 248.3437,
            "MeanAnomaly": 111.5542,
            "MeanMotion": 2.13102458,
            "RevolutionNumber": "3639"
        },
        {
            "Name": "COSMOS 2547 (705K)",
            "Line1": "1 46805U 20075A   24323.15993365  .00000034  00000+0  00000+0 0  9997",
            "Line2": "2 46805  64.5960 211.7172 0006486 235.9112 124.1095  2.13102734 31631",
            "SatelliteNumber": "46805",
            "Classification": "U",
            "LaunchYear": "20",
            "LaunchNumber": "075",
            "PieceOfLaunch": "A",
            "EpochYear": "24",
            "EpochDay": 323.15993365,
            "FirstDerivativeMeanMotion": 3.4e-07,
            "SecondDerivativeMeanMotion": "00000+0",
            "BSTAR": "00000+0",
            "SetNumber": "999",
            "Inclination": 64.596,
            "RAAN": 211.7172,
            "Eccentricity": 0.0006486,
            "ArgumentOfPerigee": 235.9112,
            "MeanAnomaly": 124.1095,
            "MeanMotion": 2.13102734,
            "RevolutionNumber": "3163"
        },
        {
            "Name": "COSMOS 2557 (706K)",
            "Line1": "1 52984U 22075A   24323.32584663 -.00000059  00000+0  00000+0 0  9998",
            "Line2": "2 52984  64.6076 334.7030 0014072 276.4377  83.4340  2.13101994 18448",
            "SatelliteNumber": "52984",
            "Classification": "U",
            "LaunchYear": "22",
            "LaunchNumber": "075",
            "PieceOfLaunch": "A",
            "EpochYear": "24",
            "EpochDay": 323.32584663,
            "FirstDerivativeMeanMotion": -5.9e-07,
            "SecondDerivativeMeanMotion": "00000+0",
            "BSTAR": "00000+0",
            "SetNumber": "999",
            "Inclination": 64.6076,
            "RAAN": 334.703,
            "Eccentricity": 0.0014072,
            "ArgumentOfPerigee": 276.4377,
            "MeanAnomaly": 83.434,
            "MeanMotion": 2.13101994,
            "RevolutionNumber": "1844"
        },
        {
            "Name": "COSMOS 2559 (707K)",
            "Line1": "1 54031U 22130A   24323.26924049 -.00000059  00000+0  00000+0 0  9994",
            "Line2": "2 54031  64.5796 334.8172 0008330 232.0233 127.9337  2.13101320 16416",
            "SatelliteNumber": "54031",
            "Classification": "U",
            "LaunchYear": "22",
            "LaunchNumber": "130",
            "PieceOfLaunch": "A",
            "EpochYear": "24",
            "EpochDay": 323.26924049,
            "FirstDerivativeMeanMotion": -5.9e-07,
            "SecondDerivativeMeanMotion": "00000+0",
            "BSTAR": "00000+0",
            "SetNumber": "999",
            "Inclination": 64.5796,
            "RAAN": 334.8172,
            "Eccentricity": 0.000833,
            "ArgumentOfPerigee": 232.0233,
            "MeanAnomaly": 127.9337,
            "MeanMotion": 2.1310132,
            "RevolutionNumber": "1641"
        },
        {
            "Name": "COSMOS 2564 (761)",
            "Line1": "1 54377U 22161A   24322.99023319  .00000036  00000+0  00000+0 0  9994",
            "Line2": "2 54377  64.7374 211.8553 0008585 212.6714 147.3576  2.13102077 15353",
            "SatelliteNumber": "54377",
            "Classification": "U",
            "LaunchYear": "22",
            "LaunchNumber": "161",
            "PieceOfLaunch": "A",
            "EpochYear": "24",
            "EpochDay": 322.99023319,
            "FirstDerivativeMeanMotion": 3.6e-07,
            "SecondDerivativeMeanMotion": "00000+0",
            "BSTAR": "00000+0",
            "SetNumber": "999",
            "Inclination": 64.7374,
            "RAAN": 211.8553,
            "Eccentricity": 0.0008585,
            "ArgumentOfPerigee": 212.6714,
            "MeanAnomaly": 147.3576,
            "MeanMotion": 2.13102077,
            "RevolutionNumber": "1535"
        },
        {
            "Name": "COSMOS 2569 (703K)",
            "Line1": "1 57517U 23114A   24323.00626236  .00000002  00000+0  00000+0 0  9995",
            "Line2": "2 57517  64.9900  92.1008 0009224 289.9378  69.9389  2.13104003  9982",
            "SatelliteNumber": "57517",
            "Classification": "U",
            "LaunchYear": "23",
            "LaunchNumber": "114",
            "PieceOfLaunch": "A",
            "EpochYear": "24",
            "EpochDay": 323.00626236,
            "FirstDerivativeMeanMotion": 2e-08,
            "SecondDerivativeMeanMotion": "00000+0",
            "BSTAR": "00000+0",
            "SetNumber": "999",
            "Inclination": 64.99,
            "RAAN": 92.1008,
            "Eccentricity": 0.0009224,
            "ArgumentOfPerigee": 289.9378,
            "MeanAnomaly": 69.9389,
            "MeanMotion": 2.13104003,
            "RevolutionNumber": "998"
        }
    ]
}